[{"OBJECT_NAME":"MESAT1","OBJECT_ID":"2024-125G","EPOCH":"2026-03-09T13:42:49.415328","MEAN_MOTION":15.53588194,"ECCENTRICITY":0.0011362,"INCLINATION":97.2457,"RA_OF_ASC_NODE":284.4146,"ARG_OF_PERICENTER":222.17,"MEAN_ANOMALY":137.8681,"EPHEMERIS_TYPE":0,"CLASSIFICATION_TYPE":"U","NORAD_CAT_ID":60209,"ELEMENT_SET_NO":999,"REV_AT_EPOCH":9405,"BSTAR":0.00067574,"MEAN_MOTION_DOT":0.00043222,"MEAN_MOTION_DDOT":0},{"OBJECT_NAME":"CHOLLIMA-1 R\/B","OBJECT_ID":"2023-179B","EPOCH":"2026-03-09T17:02:54.070656","MEAN_MOTION":15.57199022,"ECCENTRICITY":0.00173492,"INCLINATION":97.3179,"RA_OF_ASC_NODE":332.7764,"ARG_OF_PERICENTER":155.2544,"MEAN_ANOMALY":204.9547,"EPHEMERIS_TYPE":0,"CLASSIFICATION_TYPE":"U","NORAD_CAT_ID":58401,"ELEMENT_SET_NO":999,"REV_AT_EPOCH":12899,"BSTAR":0.00044530168,"MEAN_MOTION_DOT":0.00032569,"MEAN_MOTION_DDOT":0}]
